*******************************************************************************
Ephemeris / WWW_USER Fri Mar  7 09:51:58 2025 Pasadena, USA      / Horizons    
*******************************************************************************
Target body name: Triton (801)                    {source: nep097_merged}
Center body name: Earth (399)                     {source: nep097_merged}
Center-site name: Mauna Kea
*******************************************************************************
Start time      : A.D. 2018-Nov-08 03:54:00.0000 UT      
Stop  time      : A.D. 2018-Nov-08 16:17:00.0000 UT      
Step-size       : 1 minutes
*******************************************************************************
Target pole/equ : IAU_TRITON                      {East-longitude positive}
Target radii    : 1352.6, 1352.6, 1352.6 km       {Equator_a, b, pole_c}       
Center geodetic : 204.5278, 19.8260847, 4.21024   {E-lon(deg),Lat(deg),Alt(km)}
Center cylindric: 204.5278, 6006.35451, 2151.0229 {E-lon(deg),Dxy(km),Dz(km)}
Center pole/equ : ITRF93                          {East-longitude positive}
Center radii    : 6378.137, 6378.137, 6356.752 km {Equator_a, b, pole_c}       
Target primary  : Neptune
Vis. interferer : MOON (R_eq= 1737.400) km        {source: DE441}
Rel. light bend : Sun                             {source: nep097_merged}
Rel. lght bnd GM: 1.3271E+11 km^3/s^2                                          
Atmos refraction: NO (AIRLESS)
RA format       : HMS
Time format     : CAL 
Calendar mode   : Mixed Julian/Gregorian
RTS-only print  : NO       
EOP file        : eop.250306.p250602                                           
EOP coverage    : DATA-BASED 1962-JAN-20 TO 2025-MAR-06. PREDICTS-> 2025-JUN-01
Units conversion: 1 au= 149597870.700 km, c= 299792.458 km/s, 1 day= 86400.0 s 
Table cut-offs 1: Elevation (-90.0deg=NO ),Airmass (>38.000=NO), Daylight (YES)
Table cut-offs 2: Solar elongation (  0.0,180.0=NO ),Local Hour Angle( 0.0=NO )
Table cut-offs 3: RA/DEC angular rate (     0.0=NO )                           
*******************************************************************************
 Date__(UT)__HR:MN     R.A._________(ICRF)_________DEC
******************************************************
$$SOE
 2018-Nov-08 13:14     23 00 44.407028 -07 24 03.70814
 2018-Nov-08 13:15     23 00 44.405293 -07 24 03.70924
 2018-Nov-08 13:16     23 00 44.403558 -07 24 03.71033
 2018-Nov-08 13:17     23 00 44.401825 -07 24 03.71142
 2018-Nov-08 13:18     23 00 44.400092 -07 24 03.71250
 2018-Nov-08 13:19     23 00 44.398360 -07 24 03.71357
 2018-Nov-08 13:20     23 00 44.396630 -07 24 03.71463
 2018-Nov-08 13:21     23 00 44.394899 -07 24 03.71569
 2018-Nov-08 13:22     23 00 44.393170 -07 24 03.71674
 2018-Nov-08 13:23     23 00 44.391442 -07 24 03.71779
 2018-Nov-08 13:24     23 00 44.389714 -07 24 03.71883
 2018-Nov-08 13:25     23 00 44.387987 -07 24 03.71986
 2018-Nov-08 13:26     23 00 44.386261 -07 24 03.72088
 2018-Nov-08 13:27     23 00 44.384536 -07 24 03.72190
 2018-Nov-08 13:28     23 00 44.382811 -07 24 03.72292
 2018-Nov-08 13:29     23 00 44.381088 -07 24 03.72392
 2018-Nov-08 13:30     23 00 44.379365 -07 24 03.72492
 2018-Nov-08 13:31     23 00 44.377643 -07 24 03.72591
 2018-Nov-08 13:32     23 00 44.375922 -07 24 03.72690
 2018-Nov-08 13:33     23 00 44.374201 -07 24 03.72788
 2018-Nov-08 13:34     23 00 44.372482 -07 24 03.72885
 2018-Nov-08 13:35     23 00 44.370763 -07 24 03.72981
 2018-Nov-08 13:36     23 00 44.369045 -07 24 03.73077
 2018-Nov-08 13:37     23 00 44.367328 -07 24 03.73172
 2018-Nov-08 13:38     23 00 44.365612 -07 24 03.73267
 2018-Nov-08 13:39     23 00 44.363896 -07 24 03.73361
 2018-Nov-08 13:40     23 00 44.362182 -07 24 03.73454
 2018-Nov-08 13:41     23 00 44.360468 -07 24 03.73547
 2018-Nov-08 13:42     23 00 44.358755 -07 24 03.73639
 2018-Nov-08 13:43     23 00 44.357042 -07 24 03.73730
 2018-Nov-08 13:44     23 00 44.355331 -07 24 03.73821
 2018-Nov-08 13:45     23 00 44.353620 -07 24 03.73911
 2018-Nov-08 13:46     23 00 44.351911 -07 24 03.74000
 2018-Nov-08 13:47     23 00 44.350202 -07 24 03.74089
 2018-Nov-08 13:48     23 00 44.348494 -07 24 03.74177
 2018-Nov-08 13:49     23 00 44.346786 -07 24 03.74264
 2018-Nov-08 13:50     23 00 44.345080 -07 24 03.74351
 2018-Nov-08 13:51     23 00 44.343374 -07 24 03.74437
 2018-Nov-08 13:52     23 00 44.341669 -07 24 03.74523
 2018-Nov-08 13:53     23 00 44.339965 -07 24 03.74607
 2018-Nov-08 13:54     23 00 44.338261 -07 24 03.74691
 2018-Nov-08 13:55     23 00 44.336559 -07 24 03.74775
 2018-Nov-08 13:56     23 00 44.334857 -07 24 03.74858
 2018-Nov-08 13:57     23 00 44.333156 -07 24 03.74940
 2018-Nov-08 13:58     23 00 44.331456 -07 24 03.75022
 2018-Nov-08 13:59     23 00 44.329757 -07 24 03.75102
 2018-Nov-08 14:00     23 00 44.328058 -07 24 03.75183
 2018-Nov-08 14:01     23 00 44.326361 -07 24 03.75262
 2018-Nov-08 14:02     23 00 44.324664 -07 24 03.75341
 2018-Nov-08 14:03     23 00 44.322967 -07 24 03.75420
 2018-Nov-08 14:04     23 00 44.321272 -07 24 03.75497
 2018-Nov-08 14:05     23 00 44.319578 -07 24 03.75574
 2018-Nov-08 14:06     23 00 44.317884 -07 24 03.75651
 2018-Nov-08 14:07     23 00 44.316191 -07 24 03.75727
 2018-Nov-08 14:08     23 00 44.314499 -07 24 03.75802
 2018-Nov-08 14:09     23 00 44.312808 -07 24 03.75876
 2018-Nov-08 14:10     23 00 44.311117 -07 24 03.75950
 2018-Nov-08 14:11     23 00 44.309427 -07 24 03.76023
 2018-Nov-08 14:12     23 00 44.307738 -07 24 03.76096
 2018-Nov-08 14:13     23 00 44.306050 -07 24 03.76168
 2018-Nov-08 14:14     23 00 44.304363 -07 24 03.76239
 2018-Nov-08 14:15     23 00 44.302676 -07 24 03.76310
 2018-Nov-08 14:16     23 00 44.300991 -07 24 03.76380
 2018-Nov-08 14:17     23 00 44.299306 -07 24 03.76449
 2018-Nov-08 14:18     23 00 44.297621 -07 24 03.76518
 2018-Nov-08 14:19     23 00 44.295938 -07 24 03.76586
 2018-Nov-08 14:20     23 00 44.294256 -07 24 03.76654
 2018-Nov-08 14:21     23 00 44.292574 -07 24 03.76721
 2018-Nov-08 14:22     23 00 44.290893 -07 24 03.76787
 2018-Nov-08 14:23     23 00 44.289212 -07 24 03.76853
 2018-Nov-08 14:24     23 00 44.287533 -07 24 03.76918
 2018-Nov-08 14:25     23 00 44.285854 -07 24 03.76982
 2018-Nov-08 14:26     23 00 44.284177 -07 24 03.77046
 2018-Nov-08 14:27     23 00 44.282499 -07 24 03.77109
 2018-Nov-08 14:28     23 00 44.280823 -07 24 03.77172
 2018-Nov-08 14:29     23 00 44.279148 -07 24 03.77233
 2018-Nov-08 14:30     23 00 44.277473 -07 24 03.77295
 2018-Nov-08 14:31     23 00 44.275799 -07 24 03.77355
 2018-Nov-08 14:32     23 00 44.274126 -07 24 03.77415
 2018-Nov-08 14:33     23 00 44.272453 -07 24 03.77475
 2018-Nov-08 14:34     23 00 44.270782 -07 24 03.77534
 2018-Nov-08 14:35     23 00 44.269111 -07 24 03.77592
 2018-Nov-08 14:36     23 00 44.267441 -07 24 03.77649
 2018-Nov-08 14:37     23 00 44.265772 -07 24 03.77706
 2018-Nov-08 14:38     23 00 44.264103 -07 24 03.77762
 2018-Nov-08 14:39     23 00 44.262435 -07 24 03.77818
 2018-Nov-08 14:40     23 00 44.260769 -07 24 03.77873
 2018-Nov-08 14:41     23 00 44.259102 -07 24 03.77928
 2018-Nov-08 14:42     23 00 44.257437 -07 24 03.77981
 2018-Nov-08 14:43     23 00 44.255772 -07 24 03.78035
 2018-Nov-08 14:44     23 00 44.254109 -07 24 03.78087
 2018-Nov-08 14:45     23 00 44.252445 -07 24 03.78139
 2018-Nov-08 14:46     23 00 44.250783 -07 24 03.78190
 2018-Nov-08 14:47     23 00 44.249122 -07 24 03.78241
 2018-Nov-08 14:48     23 00 44.247461 -07 24 03.78291
 2018-Nov-08 14:49     23 00 44.245801 -07 24 03.78341
 2018-Nov-08 14:50     23 00 44.244142 -07 24 03.78390
 2018-Nov-08 14:51     23 00 44.242483 -07 24 03.78438
 2018-Nov-08 14:52     23 00 44.240825 -07 24 03.78486
 2018-Nov-08 14:53     23 00 44.239169 -07 24 03.78533
 2018-Nov-08 14:54     23 00 44.237512 -07 24 03.78579
 2018-Nov-08 14:55     23 00 44.235857 -07 24 03.78625
 2018-Nov-08 14:56     23 00 44.234202 -07 24 03.78670
 2018-Nov-08 14:57     23 00 44.232548 -07 24 03.78715
 2018-Nov-08 14:58     23 00 44.230895 -07 24 03.78759
 2018-Nov-08 14:59     23 00 44.229243 -07 24 03.78803
 2018-Nov-08 15:00     23 00 44.227591 -07 24 03.78845
 2018-Nov-08 15:01     23 00 44.225941 -07 24 03.78888
 2018-Nov-08 15:02     23 00 44.224290 -07 24 03.78929
 2018-Nov-08 15:03     23 00 44.222641 -07 24 03.78970
 2018-Nov-08 15:04     23 00 44.220993 -07 24 03.79011
 2018-Nov-08 15:05     23 00 44.219345 -07 24 03.79050
 2018-Nov-08 15:06     23 00 44.217698 -07 24 03.79090
 2018-Nov-08 15:07     23 00 44.216051 -07 24 03.79128
 2018-Nov-08 15:08     23 00 44.214406 -07 24 03.79166
 2018-Nov-08 15:09     23 00 44.212761 -07 24 03.79204
 2018-Nov-08 15:10     23 00 44.211117 -07 24 03.79240
 2018-Nov-08 15:11     23 00 44.209474 -07 24 03.79277
 2018-Nov-08 15:12 A   23 00 44.207831 -07 24 03.79312
 2018-Nov-08 15:13 A   23 00 44.206189 -07 24 03.79347
 2018-Nov-08 15:14 A   23 00 44.204548 -07 24 03.79382
 2018-Nov-08 15:15 A   23 00 44.202908 -07 24 03.79416
 2018-Nov-08 15:16 A   23 00 44.201268 -07 24 03.79449
 2018-Nov-08 15:17 A   23 00 44.199629 -07 24 03.79481
 2018-Nov-08 15:18 A   23 00 44.197991 -07 24 03.79513
 2018-Nov-08 15:19 A   23 00 44.196354 -07 24 03.79545
 2018-Nov-08 15:20 A   23 00 44.194717 -07 24 03.79576
 2018-Nov-08 15:21 A   23 00 44.193081 -07 24 03.79606
 2018-Nov-08 15:22 A   23 00 44.191446 -07 24 03.79636
 2018-Nov-08 15:23 A   23 00 44.189812 -07 24 03.79665
 2018-Nov-08 15:24 A   23 00 44.188178 -07 24 03.79693
 2018-Nov-08 15:25 A   23 00 44.186545 -07 24 03.79721
 2018-Nov-08 15:26 A   23 00 44.184913 -07 24 03.79748
 2018-Nov-08 15:27 A   23 00 44.183282 -07 24 03.79775
 2018-Nov-08 15:28 A   23 00 44.181651 -07 24 03.79801
 2018-Nov-08 15:29 A   23 00 44.180021 -07 24 03.79827
 2018-Nov-08 15:30 A   23 00 44.178391 -07 24 03.79852
 2018-Nov-08 15:31 A   23 00 44.176763 -07 24 03.79876
 2018-Nov-08 15:32 A   23 00 44.175135 -07 24 03.79900
 2018-Nov-08 15:33 A   23 00 44.173508 -07 24 03.79923
